IRIDIUM 119             
1 42959U 17061E   25257.61081822  .00000008  00000+0 -43111-5 0  9996
2 42959  86.4002 140.4719 0002125  93.0396 267.1043 14.34217766415315
IRIDIUM 107             
1 42960U 17061F   25257.42054578  .00000187  00000+0  59616-4 0  9998
2 42960  86.4002 140.5713 0002453  92.7212 267.4265 14.34219963415296
IRIDIUM 132             
1 42961U 17061G   25257.42688378  .00000103  00000+0  29721-4 0  9992
2 42961  86.4003 140.5501 0002259  86.8598 273.2856 14.34217904415292
IRIDIUM 136             
1 42962U 17061H   25257.59813313  .00000229  00000+0  74765-4 0  9997
2 42962  86.4003 140.4838 0002191  90.1962 269.9485 14.34218543415338
IRIDIUM 139             
1 42963U 17061J   25257.60447599  .00000128  00000+0  38804-4 0  9991
2 42963  86.4004 140.5387 0002315  87.6273 272.5188 14.34217947415342
IRIDIUM 125             
1 42964U 17061K   25257.59179082  .00000092  00000+0  25887-4 0  9996
2 42964  86.4006 140.6000 0002250  98.8818 261.2633 14.34218079415353
IRIDIUM 135             
1 43070U 17083A   25257.56591388  .00000084  00000+0  22802-4 0  9998
2 43070  86.3906  77.2336 0002101  84.1929 275.9507 14.34217763404644
IRIDIUM 138             
1 43071U 17083B   25257.59128415  .00000032  00000+0  42388-5 0  9994
2 43071  86.3896  76.8822 0001817 101.4148 258.7252 14.34217715404639
